[{"CCSDS_OMM_VERS":"2.0","COMMENT":"GENERATED VIA SPACE-TRACK.ORG API","CREATION_DATE":"2020-08-13T20:26:08","ORIGINATOR":"18 SPCS","OBJECT_NAME":"ONEWEB-0007","OBJECT_ID":"2019-010D","CENTER_NAME":"EARTH","REF_FRAME":"TEME","TIME_SYSTEM":"UTC","MEAN_ELEMENT_THEORY":"SGP4","EPOCH":"2020-08-13T20:00:01.000224","MEAN_MOTION":"13.21834255","ECCENTRICITY":"0.00020760","INCLINATION":"87.9214","RA_OF_ASC_NODE":"322.9189","ARG_OF_PERICENTER":"104.2047","MEAN_ANOMALY":"49.9123","EPHEMERIS_TYPE":"0","CLASSIFICATION_TYPE":"U","NORAD_CAT_ID":"44060","ELEMENT_SET_NO":"999","REV_AT_EPOCH":"7063","BSTAR":"-0.07507000000000","MEAN_MOTION_DOT":"-0.00030889","MEAN_MOTION_DDOT":"0.0000000000000","SEMIMAJOR_AXIS":"7555.858","PERIOD":"108.939","APOAPSIS":"1179.292","PERIAPSIS":"1176.155","OBJECT_TYPE":"PAYLOAD","RCS_SIZE":"LARGE","COUNTRY_CODE":"UK","LAUNCH_DATE":"2019-02-27","SITE":"FRGUI","DECAY_DATE":null,"FILE":"2801063","GP_ID":"159343148","TLE_LINE0":"0 ONEWEB-0007","TLE_LINE1":"1 44060U 19010D   20226.83334491 -.00030889  00000-0 -75070-1 0  9992","TLE_LINE2":"2 44060  87.9214 322.9189 0002076 104.2047  49.9123 13.21834255 70632"},{"CCSDS_OMM_VERS":"2.0","COMMENT":"GENERATED VIA SPACE-TRACK.ORG API","CREATION_DATE":"2020-08-14T04:26:27","ORIGINATOR":"18 SPCS","OBJECT_NAME":"ONEWEB-0007","OBJECT_ID":"2019-010D","CENTER_NAME":"EARTH","REF_FRAME":"TEME","TIME_SYSTEM":"UTC","MEAN_ELEMENT_THEORY":"SGP4","EPOCH":"2020-08-13T22:00:01.999584","MEAN_MOTION":"13.21837238","ECCENTRICITY":"0.00020910","INCLINATION":"87.9214","RA_OF_ASC_NODE":"322.9026","ARG_OF_PERICENTER":"104.4988","MEAN_ANOMALY":"85.9916","EPHEMERIS_TYPE":"0","CLASSIFICATION_TYPE":"U","NORAD_CAT_ID":"44060","ELEMENT_SET_NO":"999","REV_AT_EPOCH":"171","BSTAR":"-0.11106000000000","MEAN_MOTION_DOT":"-0.00045632","MEAN_MOTION_DDOT":"0.0000000000000","SEMIMAJOR_AXIS":"7555.847","PERIOD":"108.939","APOAPSIS":"1179.292","PERIAPSIS":"1176.132","OBJECT_TYPE":"PAYLOAD","RCS_SIZE":"LARGE","COUNTRY_CODE":"UK","LAUNCH_DATE":"2019-02-27","SITE":"FRGUI","DECAY_DATE":null,"FILE":"2801525","GP_ID":"159370849","TLE_LINE0":"0 ONEWEB-0007","TLE_LINE1":"1 44060U 19010D   20226.91668981 -.00045632 +00000-0 -11106+0 0  9995","TLE_LINE2":"2 44060 087.9214 322.9026 0002091 104.4988 085.9916 13.21837238001712"},{"CCSDS_OMM_VERS":"2.0","COMMENT":"GENERATED VIA SPACE-TRACK.ORG API","CREATION_DATE":"2020-08-14T14:16:09","ORIGINATOR":"18 SPCS","OBJECT_NAME":"ONEWEB-0007","OBJECT_ID":"2019-010D","CENTER_NAME":"EARTH","REF_FRAME":"TEME","TIME_SYSTEM":"UTC","MEAN_ELEMENT_THEORY":"SGP4","EPOCH":"2020-08-14T14:00:01.000224","MEAN_MOTION":"13.21798911","ECCENTRICITY":"0.00019980","INCLINATION":"87.9219","RA_OF_ASC_NODE":"322.7690","ARG_OF_PERICENTER":"104.8142","MEAN_ANOMALY":"16.1699","EPHEMERIS_TYPE":"0","CLASSIFICATION_TYPE":"U","NORAD_CAT_ID":"44060","ELEMENT_SET_NO":"999","REV_AT_EPOCH":"7073","BSTAR":"0.06716700000000","MEAN_MOTION_DOT":"0.00027827","MEAN_MOTION_DDOT":"0.0000000000000","SEMIMAJOR_AXIS":"7555.993","PERIOD":"108.942","APOAPSIS":"1179.368","PERIAPSIS":"1176.348","OBJECT_TYPE":"PAYLOAD","RCS_SIZE":"LARGE","COUNTRY_CODE":"UK","LAUNCH_DATE":"2019-02-27","SITE":"FRGUI","DECAY_DATE":null,"FILE":"2801742","GP_ID":"159376516","TLE_LINE0":"0 ONEWEB-0007","TLE_LINE1":"1 44060U 19010D   20227.58334491  .00027827  00000-0  67167-1 0  9999","TLE_LINE2":"2 44060  87.9219 322.7690 0001998 104.8142  16.1699 13.21798911 70739"},{"CCSDS_OMM_VERS":"2.0","COMMENT":"GENERATED VIA SPACE-TRACK.ORG API","CREATION_DATE":"2020-08-15T06:16:09","ORIGINATOR":"18 SPCS","OBJECT_NAME":"ONEWEB-0007","OBJECT_ID":"2019-010D","CENTER_NAME":"EARTH","REF_FRAME":"TEME","TIME_SYSTEM":"UTC","MEAN_ELEMENT_THEORY":"SGP4","EPOCH":"2020-08-15T06:00:00.999648","MEAN_MOTION":"13.21814716","ECCENTRICITY":"0.00020550","INCLINATION":"87.9221","RA_OF_ASC_NODE":"322.6367","ARG_OF_PERICENTER":"104.8143","MEAN_ANOMALY":"306.6970","EPHEMERIS_TYPE":"0","CLASSIFICATION_TYPE":"U","NORAD_CAT_ID":"44060","ELEMENT_SET_NO":"999","REV_AT_EPOCH":"7082","BSTAR":"0.03465500000000","MEAN_MOTION_DOT":"0.00014346","MEAN_MOTION_DDOT":"0.0000000000000","SEMIMAJOR_AXIS":"7555.933","PERIOD":"108.941","APOAPSIS":"1179.351","PERIAPSIS":"1176.245","OBJECT_TYPE":"PAYLOAD","RCS_SIZE":"LARGE","COUNTRY_CODE":"UK","LAUNCH_DATE":"2019-02-27","SITE":"FRGUI","DECAY_DATE":null,"FILE":"2802136","GP_ID":"159405765","TLE_LINE0":"0 ONEWEB-0007","TLE_LINE1":"1 44060U 19010D   20228.25001157  .00014346  00000-0  34655-1 0  9992","TLE_LINE2":"2 44060  87.9221 322.6367 0002055 104.8143 306.6970 13.21814716 70829"},{"CCSDS_OMM_VERS":"2.0","COMMENT":"GENERATED VIA SPACE-TRACK.ORG API","CREATION_DATE":"2020-08-15T16:44:43","ORIGINATOR":"18 SPCS","OBJECT_NAME":"ONEWEB-0007","OBJECT_ID":"2019-010D","CENTER_NAME":"EARTH","REF_FRAME":"TEME","TIME_SYSTEM":"UTC","MEAN_ELEMENT_THEORY":"SGP4","EPOCH":"2020-08-15T14:00:01.999872","MEAN_MOTION":"13.21799314","ECCENTRICITY":"0.00020060","INCLINATION":"87.9222","RA_OF_ASC_NODE":"322.5694","ARG_OF_PERICENTER":"104.0997","MEAN_ANOMALY":"92.7460","EPHEMERIS_TYPE":"0","CLASSIFICATION_TYPE":"U","NORAD_CAT_ID":"44060","ELEMENT_SET_NO":"999","REV_AT_EPOCH":"174","BSTAR":"0.06595500000000","MEAN_MOTION_DOT":"0.00027324","MEAN_MOTION_DDOT":"0.0000000000000","SEMIMAJOR_AXIS":"7555.992","PERIOD":"108.942","APOAPSIS":"1179.372","PERIAPSIS":"1176.341","OBJECT_TYPE":"PAYLOAD","RCS_SIZE":"LARGE","COUNTRY_CODE":"UK","LAUNCH_DATE":"2019-02-27","SITE":"FRGUI","DECAY_DATE":null,"FILE":"2802508","GP_ID":"159433418","TLE_LINE0":"0 ONEWEB-0007","TLE_LINE1":"1 44060U 19010D   20228.58335648 +.00027324 +00000-0 +65955-1 0  9990","TLE_LINE2":"2 44060 087.9222 322.5694 0002006 104.0997 092.7460 13.21799314001745"},{"CCSDS_OMM_VERS":"2.0","COMMENT":"GENERATED VIA SPACE-TRACK.ORG API","CREATION_DATE":"2020-08-15T22:16:10","ORIGINATOR":"18 SPCS","OBJECT_NAME":"ONEWEB-0007","OBJECT_ID":"2019-010D","CENTER_NAME":"EARTH","REF_FRAME":"TEME","TIME_SYSTEM":"UTC","MEAN_ELEMENT_THEORY":"SGP4","EPOCH":"2020-08-15T22:00:00.999936","MEAN_MOTION":"13.21836305","ECCENTRICITY":"0.00020920","INCLINATION":"87.9223","RA_OF_ASC_NODE":"322.5035","ARG_OF_PERICENTER":"104.0427","MEAN_ANOMALY":"238.0042","EPHEMERIS_TYPE":"0","CLASSIFICATION_TYPE":"U","NORAD_CAT_ID":"44060","ELEMENT_SET_NO":"999","REV_AT_EPOCH":"7090","BSTAR":"-0.10429000000000","MEAN_MOTION_DOT":"-0.00042862","MEAN_MOTION_DDOT":"0.0000000000000","SEMIMAJOR_AXIS":"7555.851","PERIOD":"108.939","APOAPSIS":"1179.296","PERIAPSIS":"1176.135","OBJECT_TYPE":"PAYLOAD","RCS_SIZE":"LARGE","COUNTRY_CODE":"UK","LAUNCH_DATE":"2019-02-27","SITE":"FRGUI","DECAY_DATE":null,"FILE":"2802522","GP_ID":"159455133","TLE_LINE0":"0 ONEWEB-0007","TLE_LINE1":"1 44060U 19010D   20228.91667824 -.00042862  00000-0 -10429+0 0  9991","TLE_LINE2":"2 44060  87.9223 322.5035 0002092 104.0427 238.0042 13.21836305 70905"},{"CCSDS_OMM_VERS":"2.0","COMMENT":"GENERATED VIA SPACE-TRACK.ORG API","CREATION_DATE":"2020-08-16T17:43:49","ORIGINATOR":"18 SPCS","OBJECT_NAME":"ONEWEB-0007","OBJECT_ID":"2019-010D","CENTER_NAME":"EARTH","REF_FRAME":"TEME","TIME_SYSTEM":"UTC","MEAN_ELEMENT_THEORY":"SGP4","EPOCH":"2020-08-16T14:00:01.000224","MEAN_MOTION":"13.21797597","ECCENTRICITY":"0.00020400","INCLINATION":"87.9222","RA_OF_ASC_NODE":"322.3700","ARG_OF_PERICENTER":"103.9532","MEAN_ANOMALY":"168.6432","EPHEMERIS_TYPE":"0","CLASSIFICATION_TYPE":"U","NORAD_CAT_ID":"44060","ELEMENT_SET_NO":"999","REV_AT_EPOCH":"7099","BSTAR":"0.06753600000000","MEAN_MOTION_DOT":"0.00027980","MEAN_MOTION_DDOT":"0.0000000000000","SEMIMAJOR_AXIS":"7555.998","PERIOD":"108.942","APOAPSIS":"1179.405","PERIAPSIS":"1176.322","OBJECT_TYPE":"PAYLOAD","RCS_SIZE":"LARGE","COUNTRY_CODE":"UK","LAUNCH_DATE":"2019-02-27","SITE":"FRGUI","DECAY_DATE":null,"FILE":"2802974","GP_ID":"159521981","TLE_LINE0":"0 ONEWEB-0007","TLE_LINE1":"1 44060U 19010D   20229.58334491 +.00027980 +00000-0 +67536-1 0  9991","TLE_LINE2":"2 44060 087.9222 322.3700 0002040 103.9532 168.6432 13.21797597070998"},{"CCSDS_OMM_VERS":"2.0","COMMENT":"GENERATED VIA SPACE-TRACK.ORG API","CREATION_DATE":"2020-08-17T02:44:58","ORIGINATOR":"18 SPCS","OBJECT_NAME":"ONEWEB-0007","OBJECT_ID":"2019-010D","CENTER_NAME":"EARTH","REF_FRAME":"TEME","TIME_SYSTEM":"UTC","MEAN_ELEMENT_THEORY":"SGP4","EPOCH":"2020-08-16T22:00:00.999936","MEAN_MOTION":"13.21834651","ECCENTRICITY":"0.00021090","INCLINATION":"87.9222","RA_OF_ASC_NODE":"322.3041","ARG_OF_PERICENTER":"104.2033","MEAN_ANOMALY":"313.6476","EPHEMERIS_TYPE":"0","CLASSIFICATION_TYPE":"U","NORAD_CAT_ID":"44060","ELEMENT_SET_NO":"999","REV_AT_EPOCH":"172","BSTAR":"-0.10582000000000","MEAN_MOTION_DOT":"-0.00043487","MEAN_MOTION_DDOT":"0.0000000000000","SEMIMAJOR_AXIS":"7555.857","PERIOD":"108.939","APOAPSIS":"1179.315","PERIAPSIS":"1176.128","OBJECT_TYPE":"PAYLOAD","RCS_SIZE":"LARGE","COUNTRY_CODE":"UK","LAUNCH_DATE":"2019-02-27","SITE":"FRGUI","DECAY_DATE":null,"FILE":"2803232","GP_ID":"159569374","TLE_LINE0":"0 ONEWEB-0007","TLE_LINE1":"1 44060U 19010D   20229.91667824 -.00043487 +00000-0 -10582+0 0  9996","TLE_LINE2":"2 44060 087.9222 322.3041 0002109 104.2033 313.6476 13.21834651001720"}]